[{"OBJECT_NAME":"STARLINK-5401","OBJECT_ID":"2022-177BC","EPOCH":"2026-03-08T12:30:42.167232","MEAN_MOTION":15.02896874,"ECCENTRICITY":0.0001749,"INCLINATION":43.0079,"RA_OF_ASC_NODE":126.3191,"ARG_OF_PERICENTER":274.8194,"MEAN_ANOMALY":85.2449,"EPHEMERIS_TYPE":0,"CLASSIFICATION_TYPE":"U","NORAD_CAT_ID":54870,"ELEMENT_SET_NO":999,"REV_AT_EPOCH":17693,"BSTAR":0.0019979415,"MEAN_MOTION_DOT":0.0002715,"MEAN_MOTION_DDOT":0},{"OBJECT_NAME":"FENGYUN 1C DEB","OBJECT_ID":"1999-025ECN","EPOCH":"2026-03-02T11:35:56.929056","MEAN_MOTION":14.49527005,"ECCENTRICITY":0.0254766,"INCLINATION":99.2938,"RA_OF_ASC_NODE":323.2209,"ARG_OF_PERICENTER":11.3971,"MEAN_ANOMALY":349.2842,"EPHEMERIS_TYPE":0,"CLASSIFICATION_TYPE":"U","NORAD_CAT_ID":37006,"ELEMENT_SET_NO":999,"REV_AT_EPOCH":66269,"BSTAR":0.0010822805,"MEAN_MOTION_DOT":6.233e-5,"MEAN_MOTION_DDOT":0}]
